{
  "type": "FeatureCollection",
  "features": [
    {
      "type": "Feature",
      "properties": {
        "norad_id": 31761,
        "name": "FENGYUN 1C DEB",
        "group": "fengyun-1c-debris",
        "lat": -74.79686969292321,
        "lon": -8.26394513257562,
        "alt_km": 565.98712385003,
        "timestamp": "2025-12-07T14:37:05.488582+00:00",
        "meta_object_name": "FENGYUN 1C DEB",
        "meta_object_id": "1999-025CFL",
        "meta_epoch": "2025-12-06T08:16:15.070368",
        "meta_mean_motion": 14.03282687,
        "meta_eccentricity": 0.04731649,
        "meta_inclination": 98.6324,
        "meta_ra_of_asc_node": 204.5176,
        "meta_arg_of_pericenter": 281.4928,
        "meta_mean_anomaly": 73.3484,
        "meta_ephemeris_type": 0,
        "meta_classification_type": "U",
        "meta_norad_cat_id": 31761,
        "meta_element_set_no": 999,
        "meta_rev_at_epoch": 58021,
        "meta_bstar": 0.0037553918,
        "meta_mean_motion_dot": 0.00016022,
        "meta_mean_motion_ddot": 0,
        "tle_line1": "1 31761U 99025CFL 25340.34461887  .00016022  00000+0  37554-2 0  9994",
        "tle_line2": "2 31761  98.6324 204.5176 0473164 281.4928  73.3484 14.03282687580212"
      },
      "geometry": {
        "type": "Point",
        "coordinates": [
          -8.26394513257562,
          -74.79686969292321
        ]
      }
    },
    {
      "type": "Feature",
      "properties": {
        "norad_id": 31763,
        "name": "FENGYUN 1C DEB",
        "group": "fengyun-1c-debris",
        "lat": -14.194637652571318,
        "lon": -91.45301738917979,
        "alt_km": 1204.352205976019,
        "timestamp": "2025-12-07T14:37:05.488592+00:00",
        "meta_object_name": "FENGYUN 1C DEB",
        "meta_object_id": "1999-025CFN",
        "meta_epoch": "2025-12-06T18:51:03.235104",
        "meta_mean_motion": 13.50309336,
        "meta_eccentricity": 0.05470656,
        "meta_inclination": 98.5208,
        "meta_ra_of_asc_node": 90.0106,
        "meta_arg_of_pericenter": 85.0135,
        "meta_mean_anomaly": 61.6409,
        "meta_ephemeris_type": 0,
        "meta_classification_type": "U",
        "meta_norad_cat_id": 31763,
        "meta_element_set_no": 999,
        "meta_rev_at_epoch": 90925,
        "meta_bstar": 0.0014816861,
        "meta_mean_motion_dot": 2.395e-05,
        "meta_mean_motion_ddot": 0,
        "tle_line1": "1 31763U 99025CFN 25340.78545411  .00002395  00000+0  14817-2 0  9995",
        "tle_line2": "2 31763  98.5208  90.0106 0547065  85.0135  61.6409 13.50309336909253"
      },
      "geometry": {
        "type": "Point",
        "coordinates": [
          -91.45301738917979,
          -14.194637652571318
        ]
      }
    },
    {
      "type": "Feature",
      "properties": {
        "norad_id": 31766,
        "name": "FENGYUN 1C DEB",
        "group": "fengyun-1c-debris",
        "lat": -58.7214273958272,
        "lon": 144.77662212994602,
        "alt_km": 860.4809986655537,
        "timestamp": "2025-12-07T14:37:05.488602+00:00",
        "meta_object_name": "FENGYUN 1C DEB",
        "meta_object_id": "1999-025CFR",
        "meta_epoch": "2025-12-05T17:02:42.241632",
        "meta_mean_motion": 14.0527359,
        "meta_eccentricity": 0.00736647,
        "meta_inclination": 98.8158,
        "meta_ra_of_asc_node": 337.7312,
        "meta_arg_of_pericenter": 310.9952,
        "meta_mean_anomaly": 48.486,
        "meta_ephemeris_type": 0,
        "meta_classification_type": "U",
        "meta_norad_cat_id": 31766,
        "meta_element_set_no": 999,
        "meta_rev_at_epoch": 63987,
        "meta_bstar": 0.00041011226,
        "meta_mean_motion_dot": 6.36e-06,
        "meta_mean_motion_ddot": 0,
        "tle_line1": "1 31766U 99025CFR 25339.71021113  .00000636  00000+0  41011-3 0  9990",
        "tle_line2": "2 31766  98.8158 337.7312 0073664 310.9952  48.4860 14.05273590639874"
      },
      "geometry": {
        "type": "Point",
        "coordinates": [
          144.77662212994602,
          -58.7214273958272
        ]
      }
    },
    {
      "type": "Feature",
      "properties": {
        "norad_id": 31767,
        "name": "FENGYUN 1C DEB",
        "group": "fengyun-1c-debris",
        "lat": -39.32350627373499,
        "lon": -175.8660096736676,
        "alt_km": 904.9074767247521,
        "timestamp": "2025-12-07T14:37:05.488612+00:00",
        "meta_object_name": "FENGYUN 1C DEB",
        "meta_object_id": "1999-025CFS",
        "meta_epoch": "2025-12-01T14:37:35.233248",
        "meta_mean_motion": 14.04944671,
        "meta_eccentricity": 0.0041867,
        "meta_inclination": 98.8235,
        "meta_ra_of_asc_node": 5.6102,
        "meta_arg_of_pericenter": 100.5814,
        "meta_mean_anomaly": 30.5422,
        "meta_ephemeris_type": 0,
        "meta_classification_type": "U",
        "meta_norad_cat_id": 31767,
        "meta_element_set_no": 999,
        "meta_rev_at_epoch": 94669,
        "meta_bstar": 0.00034816625,
        "meta_mean_motion_dot": 5.22e-06,
        "meta_mean_motion_ddot": 0,
        "tle_line1": "1 31767U 99025CFS 25335.60943557  .00000522  00000+0  34817-3 0  9990",
        "tle_line2": "2 31767  98.8235   5.6102 0041867 100.5814  30.5422 14.04944671946690"
      },
      "geometry": {
        "type": "Point",
        "coordinates": [
          -175.8660096736676,
          -39.32350627373499
        ]
      }
    },
    {
      "type": "Feature",
      "properties": {
        "norad_id": 31768,
        "name": "FENGYUN 1C DEB",
        "group": "fengyun-1c-debris",
        "lat": 76.9900061492207,
        "lon": -82.54026912695743,
        "alt_km": 638.8792320868042,
        "timestamp": "2025-12-07T14:37:05.488622+00:00",
        "meta_object_name": "FENGYUN 1C DEB",
        "meta_object_id": "1999-025CFT",
        "meta_epoch": "2025-12-03T10:57:47.606400",
        "meta_mean_motion": 14.75610612,
        "meta_eccentricity": 0.00263536,
        "meta_inclination": 99.0442,
        "meta_ra_of_asc_node": 49.239,
        "meta_arg_of_pericenter": 11.0794,
        "meta_mean_anomaly": 1.6919,
        "meta_ephemeris_type": 0,
        "meta_classification_type": "U",
        "meta_norad_cat_id": 31768,
        "meta_element_set_no": 999,
        "meta_rev_at_epoch": 96736,
        "meta_bstar": 0.0034312431,
        "meta_mean_motion_dot": 0.00023557,
        "meta_mean_motion_ddot": 0,
        "tle_line1": "1 31768U 99025CFT 25337.45680100  .00023557  00000+0  34312-2 0  9990",
        "tle_line2": "2 31768  99.0442  49.2390 0026353  11.0794   1.6919 14.75610612967363"
      },
      "geometry": {
        "type": "Point",
        "coordinates": [
          -82.54026912695743,
          76.9900061492207
        ]
      }
    },
    {
      "type": "Feature",
      "properties": {
        "norad_id": 31772,
        "name": "FENGYUN 1C DEB",
        "group": "fengyun-1c-debris",
        "lat": -45.65905577852989,
        "lon": -91.88754462803094,
        "alt_km": 958.203660574185,
        "timestamp": "2025-12-07T14:37:05.488632+00:00",
        "meta_object_name": "FENGYUN 1C DEB",
        "meta_object_id": "1999-025CFX",
        "meta_epoch": "2025-12-02T05:33:26.479008",
        "meta_mean_motion": 14.11635308,
        "meta_eccentricity": 0.0135819,
        "meta_inclination": 98.4716,
        "meta_ra_of_asc_node": 254.2606,
        "meta_arg_of_pericenter": 143.9036,
        "meta_mean_anomaly": 217.1401,
        "meta_ephemeris_type": 0,
        "meta_classification_type": "U",
        "meta_norad_cat_id": 31772,
        "meta_element_set_no": 999,
        "meta_rev_at_epoch": 70735,
        "meta_bstar": 0.0011634,
        "meta_mean_motion_dot": 2.268e-05,
        "meta_mean_motion_ddot": 0,
        "tle_line1": "1 31772U 99025CFX 25336.23155647  .00002268  00000+0  11634-2 0  9991",
        "tle_line2": "2 31772  98.4716 254.2606 0135819 143.9036 217.1401 14.11635308707355"
      },
      "geometry": {
        "type": "Point",
        "coordinates": [
          -91.88754462803094,
          -45.65905577852989
        ]
      }
    },
    {
      "type": "Feature",
      "properties": {
        "norad_id": 31773,
        "name": "FENGYUN 1C DEB",
        "group": "fengyun-1c-debris",
        "lat": -17.49054277991278,
        "lon": -25.142321009578623,
        "alt_km": 680.4570862813262,
        "timestamp": "2025-12-07T14:37:05.488642+00:00",
        "meta_object_name": "FENGYUN 1C DEB",
        "meta_object_id": "1999-025CFY",
        "meta_epoch": "2025-12-01T05:23:44.833344",
        "meta_mean_motion": 14.72359777,
        "meta_eccentricity": 0.0038605,
        "meta_inclination": 98.9488,
        "meta_ra_of_asc_node": 324.9883,
        "meta_arg_of_pericenter": 215.5051,
        "meta_mean_anomaly": 144.3583,
        "meta_ephemeris_type": 0,
        "meta_classification_type": "U",
        "meta_norad_cat_id": 31773,
        "meta_element_set_no": 999,
        "meta_rev_at_epoch": 65005,
        "meta_bstar": 0.0025423,
        "meta_mean_motion_dot": 0.00016254,
        "meta_mean_motion_ddot": 0,
        "tle_line1": "1 31773U 99025CFY 25335.22482446  .00016254  00000+0  25423-2 0  9991",
        "tle_line2": "2 31773  98.9488 324.9883 0038605 215.5051 144.3583 14.72359777650053"
      },
      "geometry": {
        "type": "Point",
        "coordinates": [
          -25.142321009578623,
          -17.49054277991278
        ]
      }
    }
  ]
}